SatCatId,ObjectName,LaunchYear,OrbitalPeriod,LaunchMass,StatusCode,Inclination,Status,UcsData,OrbitClassEstimated,LaunchSiteCountry,Owner,UseType,Purpose,LaunchVehicleClass,TLE1,TLE2,MeanMotion,Eccentricity,OrbitClass
53529,STARLINK-4478,2022,95.44,-1.0,+,53.22,Active,0,LEO,USA,USA,Unknown,Unknown,Falcon,1 53529U 22101C   23027.62887557  .00003398  00000+0  23147-3 0  9994,2 53529  53.2182 138.5818 0001076  87.5139 272.5976 15.08838991 24509,15.08838991,0.0001076,LEO
53530,STARLINK-4482,2022,95.44,-1.0,+,53.22,Active,0,LEO,USA,USA,Unknown,Unknown,Falcon,1 53530U 22101D   23027.62246761  .00001090  00000+0  86581-4 0  9991,2 53530  53.2188 138.6112 0001468  87.9967 272.1194 15.08844848 24509,15.08844848,0.0001468,LEO
53531,STARLINK-4487,2022,95.44,-1.0,+,53.22,Active,0,LEO,USA,USA,Unknown,Unknown,Falcon,1 53531U 22101E   23028.02265085 -.00000118  00000+0  10654-4 0  9996,2 53531  53.2180 136.8172 0001301  92.5059 267.6082 15.08827787 24562,15.08827787,0.0001301,LEO
53532,STARLINK-4483,2022,95.44,-1.0,+,53.22,Active,0,LEO,USA,USA,Unknown,Unknown,Falcon,1 53532U 22101F   23028.12199965  .00000666  00000+0  59904-4 0  9999,2 53532  53.2176 136.3781 0001273 101.7392 258.3743 15.08835998 24586,15.08835998,0.0001273,LEO
53533,STARLINK-4493,2022,95.44,-1.0,+,53.22,Active,0,LEO,USA,USA,Unknown,Unknown,Falcon,1 53533U 22101G   23027.58935165  .00001521  00000+0  11361-3 0  9994,2 53533  53.2166 138.7666 0001184 103.4019 256.7105 15.08841048 24509,15.08841048,0.0001184,LEO
53534,STARLINK-4488,2022,95.44,-1.0,+,53.22,Active,0,LEO,USA,USA,Unknown,Unknown,Falcon,1 53534U 22101H   23027.57735529  .00000823  00000+0  69821-4 0  9995,2 53534  53.2174 138.8224 0001807  92.7733 267.3466 15.08842731 24503,15.08842731,0.0001807,LEO
53535,STARLINK-4138,2022,95.44,-1.0,+,53.22,Active,0,LEO,USA,USA,Unknown,Unknown,Falcon,1 53535U 22101J   23027.65095046  .00001431  00000+0  10798-3 0  9992,2 53535  53.2186 138.4896 0001497  98.9311 261.1851 15.08846507 24519,15.08846507,0.0001497,LEO
53536,STARLINK-4053,2022,95.54,-1.0,+,53.22,Active,0,LEO,USA,USA,Unknown,Unknown,Falcon,1 53536U 22101K   23027.89154891  .00048704  00000+0  31762-2 0  9990,2 53536  53.2148 127.3325 0001727  63.7467 296.3702 15.07435490 24687,15.0743549,0.0001727,LEO
53537,STARLINK-4120,2022,95.44,-1.0,+,53.22,Active,0,LEO,USA,USA,Unknown,Unknown,Falcon,1 53537U 22101L   23027.58839711  .00001394  00000+0  10563-3 0  9999,2 53537  53.2175 138.7736 0001219  92.5472 267.5660 15.08840223 24501,15.08840223,0.0001219,LEO
53538,STARLINK-4118,2022,95.44,-1.0,+,53.22,Active,0,LEO,USA,USA,Unknown,Unknown,Falcon,1 53538U 22101M   23027.49731721  .00001871  00000+0  13563-3 0  9995,2 53538  53.2177 129.1711 0001235  70.2147 289.8979 15.08836395 25316,15.08836395,0.0001235,LEO
53539,STARLINK-4123,2022,95.44,-1.0,+,53.22,Active,0,LEO,USA,USA,Unknown,Unknown,Falcon,1 53539U 22101N   23027.58103677  .00004266  00000+0  28589-3 0  9994,2 53539  53.2178 138.8043 0001357 103.0463 257.0681 15.08845110 24506,15.0884511,0.0001357,LEO
53540,STARLINK-4486,2022,95.44,-1.0,+,53.22,Active,0,LEO,USA,USA,Unknown,Unknown,Falcon,1 53540U 22101P   23027.62611127  .00000612  00000+0  56510-4 0  9992,2 53540  53.2193 128.5871 0001376  97.9184 262.1964 15.08857783 25334,15.08857783,0.0001376,LEO
53541,STARLINK-4485,2022,95.44,-1.0,+,53.22,Active,0,LEO,USA,USA,Unknown,Unknown,Falcon,1 53541U 22101Q   23027.57367724  .00002752  00000+0  19090-3 0  9996,2 53541  53.2161 138.8407 0001477  81.8891 278.2269 15.08844810 25195,15.0884481,0.0001477,LEO
53542,STARLINK-4489,2022,95.44,-1.0,+,53.22,Active,0,LEO,USA,USA,Unknown,Unknown,Falcon,1 53542U 22101R   23027.61875915  .00005260  00000+0  34813-3 0  9995,2 53542  53.2163 128.6259 0001500  91.9745 268.1419 15.08859971 25332,15.08859971,0.00015,LEO
53543,STARLINK-4297,2022,95.44,-1.0,+,53.22,Active,0,LEO,USA,USA,Unknown,Unknown,Falcon,1 53543U 22101S   23027.50100519  .00000088  00000+0  23649-4 0  9994,2 53543  53.2181 129.2237 0001272 100.4206 259.6930 15.08835289 25317,15.08835289,0.0001272,LEO
53544,STARLINK-4303,2022,95.44,-1.0,+,53.22,Active,0,LEO,USA,USA,Unknown,Unknown,Falcon,1 53544U 22101T   23027.61139471  .00002726  00000+0  18923-3 0  9995,2 53544  53.2168 128.6602 0001218 101.3839 258.7290 15.08847152 25315,15.08847152,0.0001218,LEO
53545,STARLINK-4475,2022,95.44,-1.0,+,53.22,Active,0,LEO,USA,USA,Unknown,Unknown,Falcon,1 53545U 22101U   23027.62243393  .00000879  00000+0  73293-4 0  9995,2 53545  53.2175 128.6117 0001130  92.7893 267.3229 15.08844040 25334,15.0884404,0.000113,LEO
53546,STARLINK-4477,2022,95.44,-1.0,+,53.22,Active,0,LEO,USA,USA,Unknown,Unknown,Falcon,1 53546U 22101V   23027.56074227  .00000362  00000+0  40829-4 0  9993,2 53546  53.2204 118.4139 0001368  99.9275 260.1872 15.08837109 24786,15.08837109,0.0001368,LEO
53547,STARLINK-4474,2022,95.44,-1.0,+,53.22,Active,0,LEO,USA,USA,Unknown,Unknown,Falcon,1 53547U 22101W   23027.54883623  .00001238  00000+0  95870-4 0  9999,2 53547  53.2187 128.9393 0001285 105.6152 254.4982 15.08843214 25303,15.08843214,0.0001285,LEO
53548,STARLINK-4513,2022,95.44,-1.0,+,53.22,Active,0,LEO,USA,USA,Unknown,Unknown,Falcon,1 53548U 22101X   23027.60035647  .00001403  00000+0  10623-3 0  9998,2 53548  53.2171 128.7161 0001209  84.0367 276.0763 15.08843075 24640,15.08843075,0.0001209,LEO
53549,STARLINK-4516,2022,95.44,-1.0,+,53.22,Active,0,LEO,USA,USA,Unknown,Unknown,Falcon,1 53549U 22101Y   23027.54147979 -.00002317  00000+0 -12748-3 0  9991,2 53549  53.2168 128.9740 0000975  99.9698 260.1404 15.08854465 25296,15.08854465,9.75e-05,LEO
53550,STARLINK-4518,2022,95.44,-1.0,+,53.22,Active,0,LEO,USA,USA,Unknown,Unknown,Falcon,1 53550U 22101Z   23027.59667628  .00004087  00000+0  27464-3 0  9991,2 53550  53.2157 128.7361 0001276  87.7613 272.3525 15.08848086 25303,15.08848086,0.0001276,LEO
53551,STARLINK-4514,2022,95.44,-1.0,+,53.22,Active,0,LEO,USA,USA,Unknown,Unknown,Falcon,1 53551U 22101AA  23027.53780180 -.00000103  00000+0  11643-4 0  9994,2 53551  53.2196 128.9916 0001624  89.6502 270.4677 15.08832056 25295,15.08832056,0.0001624,LEO
53552,STARLINK-4495,2022,95.44,-1.0,+,53.22,Active,0,LEO,USA,USA,Unknown,Unknown,Falcon,1 53552U 22101AB  23027.58931524  .00002227  00000+0  15797-3 0  9991,2 53552  53.2164 128.7687 0001180  87.7549 272.3578 15.08841684 24647,15.08841684,0.000118,LEO
53553,STARLINK-4501,2022,95.44,-1.0,+,53.22,Active,0,LEO,USA,USA,Unknown,Unknown,Falcon,1 53553U 22101AC  23027.59395355  .00000474  00000+0  47866-4 0  9994,2 53553  53.2195 128.7388 0001173  91.7149 268.3978 15.08838198 24648,15.08838198,0.0001173,LEO
53554,STARLINK-4506,2022,95.44,-1.0,+,53.22,Active,0,LEO,USA,USA,Unknown,Unknown,Falcon,1 53554U 22101AD  23027.58195899  .00001411  00000+0  10672-3 0  9991,2 53554  53.2164 128.8029 0001175 105.6776 254.4346 15.08838549 24646,15.08838549,0.0001175,LEO
53555,STARLINK-4504,2022,95.44,-1.0,+,53.22,Active,0,LEO,USA,USA,Unknown,Unknown,Falcon,1 53555U 22101AE  23027.59299881  .00000461  00000+0  47043-4 0  9996,2 53555  53.2180 128.7429 0001218  95.4189 264.6943 15.08835889 24640,15.08835889,0.0001218,LEO
53556,STARLINK-4505,2022,95.44,-1.0,+,53.22,Active,0,LEO,USA,USA,Unknown,Unknown,Falcon,1 53556U 22101AF  23027.97202138  .00001108  00000+0  87631-4 0  9994,2 53556  53.2184 127.0563 0001216 105.6159 254.4967 15.08855731 24703,15.08855731,0.0001216,LEO
53557,STARLINK-4502,2022,95.44,-1.0,+,53.22,Active,0,LEO,USA,USA,Unknown,Unknown,Falcon,1 53557U 22101AG  23027.58564000  .00001813  00000+0  13198-3 0  9990,2 53557  53.2181 128.7877 0001524  82.7333 277.3833 15.08840572 24644,15.08840572,0.0001524,LEO
53558,STARLINK-4494,2022,95.44,-1.0,+,53.22,Active,0,LEO,USA,USA,Unknown,Unknown,Falcon,1 53558U 22101AH  23028.04518718 -.00000766  00000+0 -30065-4 0  9999,2 53558  53.2182 121.4785 0000897  88.4860 271.6234 15.08840814 24780,15.08840814,8.97e-05,LEO
53559,STARLINK-4508,2022,95.44,-1.0,+,53.22,Active,0,LEO,USA,USA,Unknown,Unknown,Falcon,1 53559U 22101AJ  23027.51204037  .00001348  00000+0  10279-3 0  9996,2 53559  53.2155 129.1162 0001507  83.5286 276.5878 15.08833508 24636,15.08833508,0.0001507,LEO
53560,STARLINK-4564,2022,95.44,-1.0,+,53.22,Active,0,LEO,USA,USA,Unknown,Unknown,Falcon,1 53560U 22101AK  23027.95090400 -.00000188  00000+0  62946-5 0  9995,2 53560  53.2192 117.3156 0001121  84.2227 275.8893 15.08837013 24832,15.08837013,0.0001121,LEO
53561,STARLINK-4563,2022,95.44,-1.0,+,53.22,Active,0,LEO,USA,USA,Unknown,Unknown,Falcon,1 53561U 22101AL  23027.57091577  .00000623  00000+0  57218-4 0  9998,2 53561  53.2175 128.8558 0001495 105.4583 254.6574 15.08841691 24649,15.08841691,0.0001495,LEO
53562,STARLINK-4565,2022,95.44,-1.0,+,53.22,Active,0,LEO,USA,USA,Unknown,Unknown,Falcon,1 53562U 22101AM  23027.48081275 -.00000565  00000+0 -17444-4 0  9997,2 53562  53.2181 119.3587 0001123  86.4705 273.6415 15.08831860 25425,15.0883186,0.0001123,LEO
53563,STARLINK-4561,2022,95.44,-1.0,+,53.22,Active,0,LEO,USA,USA,Unknown,Unknown,Falcon,1 53563U 22101AN  23027.55714316  .00001127  00000+0  88900-4 0  9993,2 53563  53.2186 119.1253 0001161  87.8754 272.2371 15.08841719 24777,15.08841719,0.0001161,LEO
53564,STARLINK-4577,2022,95.44,-1.0,+,53.22,Active,0,LEO,USA,USA,Unknown,Unknown,Falcon,1 53564U 22101AP  23027.54240162  .00000337  00000+0  39281-4 0  9996,2 53564  53.2187 119.0312 0001075 104.5165 255.5947 15.08838450 24772,15.0883845,0.0001075,LEO
53565,STARLINK-4575,2022,95.44,-1.0,+,53.22,Active,0,LEO,USA,USA,Unknown,Unknown,Falcon,1 53565U 22101AQ  23027.54977413 -.00000849  00000+0 -35278-4 0  9995,2 53565  53.2202 119.0799 0001208 103.9215 256.1912 15.08841918 25433,15.08841918,0.0001208,LEO
53566,STARLINK-4576,2022,95.44,-1.0,+,53.22,Active,0,LEO,USA,USA,Unknown,Unknown,Falcon,1 53566U 22101AR  23028.06495520 -.00000340  00000+0 -32603-5 0  9994,2 53566  53.2195 116.6109 0001151  92.5940 267.5184 15.08834832 24857,15.08834832,0.0001151,LEO
